[{"OBJECT_NAME":"STARLINK-32144","OBJECT_ID":"2024-131Q","EPOCH":"2026-03-09T09:29:05.864928","MEAN_MOTION":15.30191179,"ECCENTRICITY":0.00011415,"INCLINATION":53.1601,"RA_OF_ASC_NODE":53.7883,"ARG_OF_PERICENTER":96.8101,"MEAN_ANOMALY":263.303,"EPHEMERIS_TYPE":0,"CLASSIFICATION_TYPE":"U","NORAD_CAT_ID":60269,"ELEMENT_SET_NO":999,"REV_AT_EPOCH":9172,"BSTAR":-1.0181405e-5,"MEAN_MOTION_DOT":-6.6e-6,"MEAN_MOTION_DDOT":0},{"OBJECT_NAME":"FENGYUN 1C DEB","OBJECT_ID":"1999-025DFQ","EPOCH":"2026-03-09T11:05:09.183840","MEAN_MOTION":15.08584918,"ECCENTRICITY":0.01333512,"INCLINATION":99.3393,"RA_OF_ASC_NODE":158.3034,"ARG_OF_PERICENTER":18.9579,"MEAN_ANOMALY":341.654,"EPHEMERIS_TYPE":0,"CLASSIFICATION_TYPE":"U","NORAD_CAT_ID":33679,"ELEMENT_SET_NO":999,"REV_AT_EPOCH":95428,"BSTAR":0.0014594523,"MEAN_MOTION_DOT":0.00028083,"MEAN_MOTION_DDOT":0}]
